NORAD_CAT_ID,OBJECT_NAME,OBJECT_TYPE,EPOCH,MEAN_MOTION,ECCENTRICITY,INCLINATION,RA_OF_ASC_NODE,ARG_OF_PERICENTER,MEAN_ANOMALY,BSTAR,MEAN_MOTION_DOT,MEAN_MOTION_DDOT,TLE_LINE0,TLE_LINE1,TLE_LINE2,SEMIMAJOR_AXIS,PERIOD,APOGEE,PERIGEE,DECAYED
49409.0,STARLINK-3075,PAYLOAD,2022-02-17 12:00:00,15.08838627,0.0002459,53.2198,38.4285,35.5743,148.5346,0.00098204,0.00015375,0.0,0 STARLINK-3075,1 49409U 21104B   22048.50001157  .00015375  00000-0  98204-3 0  9996,2 49409  53.2198  38.4285 0002459  35.5743 148.5346 15.08838627 16111,6917.885,95.438,541.451,538.048,0.0
49409.0,STARLINK-3075,PAYLOAD,2022-02-17 22:00:00,15.0884019,0.0002225,53.22,36.5563,41.1055,247.5063,0.0018253,0.00028882,0.0,0 STARLINK-3075,1 49409U 21104B   22048.91667824  .00028882  00000-0  18253-2 0  9992,2 49409  53.2200  36.5563 0002225  41.1055 247.5063 15.08840190  3595,6917.88,95.438,541.284,538.206,0.0
49409.0,STARLINK-3075,PAYLOAD,2022-02-18 06:00:00,15.08845203,0.0002411,53.22,35.0619,37.5317,262.6883,-0.00199,-0.00031826,0.0,0 STARLINK-3075,1 49409U 21104B   22049.25001157 -.00031826  00000-0 -19900-2 0  9995,2 49409  53.2200  35.0619 0002411  37.5317 262.6883 15.08845203 16220,6917.864000000001,95.437,541.3969999999998,538.062,0.0
49409.0,STARLINK-3075,PAYLOAD,2022-02-18 14:00:01,15.08847867,0.0002356,53.2197,33.565,36.7318,275.0709,-0.0019931,-0.00031877,0.0,0 STARLINK-3075,1 49409U 21104B   22049.58334491 -.00031877  00000-0 -19931-2 0  9991,2 49409  53.2197  33.5650 0002356  36.7318 275.0709 15.08847867  3592,6917.856,95.437,541.351,538.091,0.0
49409.0,STARLINK-3075,PAYLOAD,2022-02-18 22:00:00,15.08824371,0.0002237,53.2199,32.0676,41.8618,281.5317,0.0021167,0.00033546,0.0,0 STARLINK-3075,1 49409U 21104B   22049.91667824  .00033546  00000-0  21167-2 0  9994,2 49409  53.2199  32.0676 0002237  41.8618 281.5317 15.08824371 16321,6917.928000000001,95.439,541.341,538.246,0.0
49409.0,STARLINK-3075,PAYLOAD,2022-02-19 12:00:02,15.08852063,0.000246,53.2196,29.4508,38.0541,215.6875,-0.00043201,-7.159999999999999e-05,0.0,0 STARLINK-3075,1 49409U 21104B   22050.50002315 -.00007160  00000-0 -43201-3 0  9998,2 49409  53.2196  29.4508 0002460  38.0541 215.6875 15.08852063 16419,6917.844,95.437,541.41,538.007,0.0
49409.0,STARLINK-3075,PAYLOAD,2022-02-19 14:00:01,15.08863963,0.000242,53.2197,29.0762,38.8926,307.6857,-0.0019414,-0.00031075,0.0,0 STARLINK-3075,1 49409U 21104B   22050.58334491 -.00031075  00000-0 -19414-2 0  9999,2 49409  53.2197  29.0762 0002420  38.8926 307.6857 15.08863963  3564,6917.807,95.436,541.346,537.998,0.0
49409.0,STARLINK-3075,PAYLOAD,2022-02-19 22:00:00,15.08857585,0.0002298,53.22,27.579,42.9879,315.1997,-0.00056906,-9.338e-05,0.0,0 STARLINK-3075,1 49409U 21104B   22050.91667824 -.00009338  00000-0 -56906-3 0  9990,2 49409  53.2200  27.5790 0002298  42.9879 315.1997 15.08857585  3572,6917.8269999999975,95.436,541.281,538.102,0.0
49409.0,STARLINK-3075,PAYLOAD,2022-02-20 14:00:01,15.08857383,0.0002435,53.2199,24.5873,38.7883,342.6012,-0.0017047999999999,-0.00027332,0.0,0 STARLINK-3075,1 49409U 21104B   22051.58334491 -.00027332  00000-0 -17048-2 0  9992,2 49409  53.2199  24.5873 0002435  38.7883 342.6012 15.08857383 16583,6917.8269999999975,95.436,541.377,538.008,0.0
49409.0,STARLINK-3075,PAYLOAD,2022-02-20 22:00:00,15.08852199,0.0002339,53.2202,23.0903,42.4257,350.5642,-0.0011475,-0.00018511,0.0,0 STARLINK-3075,1 49409U 21104B   22051.91667824 -.00018511  00000-0 -11475-2 0  9995,2 49409  53.2202  23.0903 0002339  42.4257 350.5642 15.08852199  3578,6917.843000000003,95.437,541.326,538.09,0.0
49409.0,STARLINK-3075,PAYLOAD,2022-02-21 14:00:01,15.08859274,0.000245,53.2203,20.0986,38.0643,18.101,-0.0042363,-0.0006712,0.0,0 STARLINK-3075,1 49409U 21104B   22052.58334491 -.00067120  00000-0 -42363-2 0  9990,2 49409  53.2203  20.0986 0002450  38.0643  18.1010 15.08859274 16730,6917.821,95.436,541.381,537.992,0.0
49409.0,STARLINK-3075,PAYLOAD,2022-02-21 22:00:00,15.08812976,0.0002354,53.2206,18.6017,41.2161,26.5386,0.0012055999999999,0.00018937,0.0,0 STARLINK-3075,1 49409U 21104B   22052.91667824  .00018937  00000-0  12056-2 0  9992,2 49409  53.2206  18.6017 0002354  41.2161  26.5386 15.08812976  3570,6917.9630000000025,95.439,541.456,538.2,0.0
49409.0,STARLINK-3075,PAYLOAD,2022-02-22 04:00:00,15.08823345,0.0002546,53.2205,17.480999999999998,38.9407,307.4913,-0.00063558,-0.00010385,0.0,0 STARLINK-3075,1 49409U 21104B   22053.16667824 -.00010385  00000-0 -63558-3 0  9995,2 49409  53.2205  17.4810 0002546  38.9407 307.4913 15.08823345 16816,6917.931,95.439,541.558,538.035,0.0
49409.0,STARLINK-3075,PAYLOAD,2022-02-22 14:00:01,15.08840271,0.0002492,53.2207,15.61,39.6449,51.2504,-0.0013887,-0.00022323,0.0,0 STARLINK-3075,1 49409U 21104B   22053.58334491 -.00022323  00000-0 -13887-2 0  9996,2 49409  53.2207  15.6100 0002492  39.6449  51.2504 15.08840271  3592,6917.88,95.438,541.4680000000002,538.021,0.0
49409.0,STARLINK-3075,PAYLOAD,2022-02-22 22:00:00,15.08840917,0.000245,53.221,14.1131,43.5783,58.9038,0.00084144,0.00013129,0.0,0 STARLINK-3075,1 49409U 21104B   22053.91667824  .00013129  00000-0  84144-3 0  9999,2 49409  53.2210  14.1131 0002450  43.5783  58.9038 15.08840917 16938,6917.878000000002,95.437,541.437,538.048,0.0
49409.0,STARLINK-3075,PAYLOAD,2022-02-23 14:00:01,15.0887544,0.0002505,53.2209,11.1212,41.5125,84.1738,-0.0037509,-0.00059552,0.0,0 STARLINK-3075,1 49409U 21104B   22054.58334491 -.00059552  00000-0 -37509-2 0  9998,2 49409  53.2209  11.1212 0002505  41.5125  84.1738 15.08875440  3609,6917.772,95.435,541.37,537.904,0.0
49409.0,STARLINK-3075,PAYLOAD,2022-02-23 20:00:01,15.08824663,0.0002408,53.221,9.9982,43.8719,0.529,0.0018826,0.00029789,0.0,0 STARLINK-3075,1 49409U 21104B   22054.83334491  .00029789  00000-0  18826-2 0  9994,2 49409  53.2210   9.9982 0002408  43.8719   0.5290 15.08824663 17078,6917.927,95.439,541.4580000000002,538.126,0.0
49409.0,STARLINK-3075,PAYLOAD,2022-02-23 22:00:00,15.08839832,0.0002426,53.2212,9.6244,43.7664,93.5267,0.00033822,5.099e-05,0.0,0 STARLINK-3075,1 49409U 21104B   22054.91667824  .00005099  00000-0  33822-3 0  9994,2 49409  53.2212   9.6244 0002426  43.7664  93.5267 15.08839832  3600,6917.880999999999,95.438,541.424,538.068,0.0
49409.0,STARLINK-3075,PAYLOAD,2022-02-24 14:00:01,15.08849561,0.0002415,53.2208,6.6322,41.1637,119.3219,-0.0029576,-0.00047066,0.0,0 STARLINK-3075,1 49409U 21104B   22055.58334491 -.00047066  00000-0 -29576-2 0  9991,2 49409  53.2208   6.6322 0002415  41.1637 119.3219 15.08849561  3591,6917.851,95.437,541.387,538.0459999999998,0.0
49409.0,STARLINK-3075,PAYLOAD,2022-02-24 22:00:00,15.08835517,0.0002375,53.2211,5.1358,43.6054,128.4623,-0.00010238,-1.917e-05,0.0,0 STARLINK-3075,1 49409U 21104B   22055.91667824 -.00001917  00000-0 -10238-3 0  9998,2 49409  53.2211   5.1358 0002375  43.6054 128.4623 15.08835517  3566,6917.894,95.438,541.4019999999998,538.116,0.0
49409.0,STARLINK-3075,PAYLOAD,2022-02-25 00:00:00,15.08843,0.0002419,53.2209,4.7623,42.3705,222.5923,-0.0012856,-0.00020693,0.0,0 STARLINK-3075,1 49409U 21104B   22056.00001157 -.00020693  00000-0 -12856-2 0  9999,2 49409  53.2209   4.7623 0002419  42.3705 222.5923 15.08843000 17246,6917.871,95.437,541.41,538.063,0.0
49409.0,STARLINK-3075,PAYLOAD,2022-02-25 14:00:01,15.0883671,0.0002422,53.22,2.1434,42.3402,152.8995,-0.00066814,-0.00010906,0.0,0 STARLINK-3075,1 49409U 21104B   22056.58334491 -.00010906  00000-0 -66814-3 0  9992,2 49409  53.2200   2.1434 0002422  42.3402 152.8995 15.08836710  3561,6917.89,95.438,541.431,538.08,0.0
49409.0,STARLINK-3075,PAYLOAD,2022-02-25 22:00:00,15.08851243,0.0002396,53.219,0.6472,43.4475,163.375,-0.0039013,-0.00061867,0.0,0 STARLINK-3075,1 49409U 21104B   22056.91667824 -.00061867  00000-0 -39013-2 0  9990,2 49409  53.2190   0.6472 0002396  43.4475 163.3750 15.08851243 17385,6917.846,95.437,541.369,538.054,0.0
49409.0,STARLINK-3075,PAYLOAD,2022-02-26 06:00:00,15.08827949,0.0002614,53.2205,359.1524,42.6007,175.8425,0.0028303,0.00045031,0.0,0 STARLINK-3075,1 49409U 21104B   22057.25001157  .00045031  00000-0  28303-2 0  9992,2 49409  53.2205 359.1524 0002614  42.6007 175.8425 15.08827949 17436,6917.917,95.438,541.591,537.974,0.0
49409.0,STARLINK-3075,PAYLOAD,2022-02-26 14:00:01,15.08856722,0.0002438,53.2202,357.6544,45.464,184.5815,-0.00035584,-5.95e-05,0.0,0 STARLINK-3075,1 49409U 21104B   22057.58334491 -.00005950  00000-0 -35584-3 0  9996,2 49409  53.2202 357.6544 0002438  45.4640 184.5815 15.08856722  3599,6917.829000000002,95.436,541.381,538.008,0.0
49409.0,STARLINK-3075,PAYLOAD,2022-02-26 22:00:00,15.08864542,0.0002438,53.2203,356.1583,47.2651,194.3848,-0.00288,-0.00045865,0.0,0 STARLINK-3075,1 49409U 21104B   22057.91667824 -.00045865  00000-0 -28800-2 0  9993,2 49409  53.2203 356.1583 0002438  47.2651 194.3848 15.08864542 17532,6917.805,95.436,541.357,537.984,0.0
49409.0,STARLINK-3075,PAYLOAD,2022-02-27 14:00:01,15.08835879,0.0002449,53.2201,353.1655,45.7287,219.1227,0.00055312,8.525e-05,0.0,0 STARLINK-3075,1 49409U 21104B   22058.58334491  .00008525  00000-0  55312-3 0  9997,2 49409  53.2201 353.1655 0002449  45.7287 219.1227 15.08835879 17636,6917.893,95.438,541.452,538.064,0.0
49409.0,STARLINK-3075,PAYLOAD,2022-02-27 22:00:00,15.08865616,0.000246,53.2202,351.6695,47.2991,229.1426,-0.0037337,-0.00059266,0.0,0 STARLINK-3075,1 49409U 21104B   22058.91667824 -.00059266  00000-0 -37337-2 0  9999,2 49409  53.2202 351.6695 0002460  47.2991 229.1426 15.08865616  3602,6917.802,95.436,541.369,537.965,0.0
49409.0,STARLINK-3075,PAYLOAD,2022-02-28 14:00:01,15.08826921,0.0002468,53.2204,348.6766,45.72,253.919,0.001464,0.0002308,0.0,0 STARLINK-3075,1 49409U 21104B   22059.58334491  .00023080  00000-0  14640-2 0  9999,2 49409  53.2204 348.6766 0002468  45.7200 253.9190 15.08826921 17786,6917.92,95.438,541.493,538.078,0.0
